{
  "type": "FeatureCollection",
  "features": [
    {
      "type": "Feature",
      "properties": {
        "norad_id": 41866,
        "name": "GOES 16",
        "group": "weather",
        "lat": 0.031151097851655863,
        "lon": 115.66749517266335,
        "alt_km": 35797.862881623354,
        "timestamp": "2025-12-04T09:47:37.166002+00:00",
        "meta_object_name": "GOES 16",
        "meta_object_id": "2016-071A",
        "meta_epoch": "2025-12-04T01:14:34.598976",
        "meta_mean_motion": 1.00270627,
        "meta_eccentricity": 0.0003448,
        "meta_inclination": 0.061,
        "meta_ra_of_asc_node": 105.5074,
        "meta_arg_of_pericenter": 151.8567,
        "meta_mean_anomaly": 89.7393,
        "meta_ephemeris_type": 0,
        "meta_classification_type": "U",
        "meta_norad_cat_id": 41866,
        "meta_element_set_no": 999,
        "meta_rev_at_epoch": 3314,
        "meta_bstar": 0,
        "meta_mean_motion_dot": -7.4e-07,
        "meta_mean_motion_ddot": 0,
        "tle_line1": "1 41866U 16071A   25338.05178934 -.00000074  00000+0  00000+0 0  9998",
        "tle_line2": "2 41866   0.0610 105.5074 0003448 151.8567  89.7393  1.00270627 33143"
      },
      "geometry": {
        "type": "Point",
        "coordinates": [
          115.66749517266335,
          0.031151097851655863
        ]
      }
    },
    {
      "type": "Feature",
      "properties": {
        "norad_id": 41882,
        "name": "FENGYUN 4A",
        "group": "weather",
        "lat": -1.798829315000652,
        "lon": -15.834211138036268,
        "alt_km": 35795.14552480941,
        "timestamp": "2025-12-04T09:47:37.166027+00:00",
        "meta_object_name": "FENGYUN 4A",
        "meta_object_id": "2016-077A",
        "meta_epoch": "2025-12-03T17:33:02.668032",
        "meta_mean_motion": 1.00278005,
        "meta_eccentricity": 0.00050458,
        "meta_inclination": 1.8246,
        "meta_ra_of_asc_node": 82.4798,
        "meta_arg_of_pericenter": 142.0307,
        "meta_mean_anomaly": 235.3013,
        "meta_ephemeris_type": 0,
        "meta_classification_type": "U",
        "meta_norad_cat_id": 41882,
        "meta_element_set_no": 999,
        "meta_rev_at_epoch": 3297,
        "meta_bstar": 0,
        "meta_mean_motion_dot": -3.4e-06,
        "meta_mean_motion_ddot": 0,
        "tle_line1": "1 41882U 16077A   25337.73128088 -.00000340  00000+0  00000+0 0  9997",
        "tle_line2": "2 41882   1.8246  82.4798 0005045 142.0307 235.3013  1.00278005 32976"
      },
      "geometry": {
        "type": "Point",
        "coordinates": [
          -15.834211138036268,
          -1.798829315000652
        ]
      }
    },
    {
      "type": "Feature",
      "properties": {
        "norad_id": 41884,
        "name": "CYGFM05",
        "group": "weather",
        "lat": -25.58958197052384,
        "lon": 58.261473026479656,
        "alt_km": 432.1811930844915,
        "timestamp": "2025-12-04T09:47:37.166041+00:00",
        "meta_object_name": "CYGFM05",
        "meta_object_id": "2016-078A",
        "meta_epoch": "2025-12-03T18:31:05.680992",
        "meta_mean_motion": 15.47125161,
        "meta_eccentricity": 0.0009412,
        "meta_inclination": 34.9582,
        "meta_ra_of_asc_node": 105.6898,
        "meta_arg_of_pericenter": 97.1465,
        "meta_mean_anomaly": 263.0327,
        "meta_ephemeris_type": 0,
        "meta_classification_type": "U",
        "meta_norad_cat_id": 41884,
        "meta_element_set_no": 999,
        "meta_rev_at_epoch": 49837,
        "meta_bstar": 0.00060726,
        "meta_mean_motion_dot": 0.00031867,
        "meta_mean_motion_ddot": 0,
        "tle_line1": "1 41884U 16078A   25337.77159353  .00031867  00000+0  60726-3 0  9995",
        "tle_line2": "2 41884  34.9582 105.6898 0009412  97.1465 263.0327 15.47125161498370"
      },
      "geometry": {
        "type": "Point",
        "coordinates": [
          58.261473026479656,
          -25.58958197052384
        ]
      }
    },
    {
      "type": "Feature",
      "properties": {
        "norad_id": 41885,
        "name": "CYGFM04",
        "group": "weather",
        "lat": 32.681851917642994,
        "lon": -170.2473546942459,
        "alt_km": 405.8036251608446,
        "timestamp": "2025-12-04T09:47:37.166052+00:00",
        "meta_object_name": "CYGFM04",
        "meta_object_id": "2016-078B",
        "meta_epoch": "2025-12-03T16:19:08.756544",
        "meta_mean_motion": 15.4978051,
        "meta_eccentricity": 0.00084979,
        "meta_inclination": 34.9344,
        "meta_ra_of_asc_node": 81.322,
        "meta_arg_of_pericenter": 126.9892,
        "meta_mean_anomaly": 233.1609,
        "meta_ephemeris_type": 0,
        "meta_classification_type": "U",
        "meta_norad_cat_id": 41885,
        "meta_element_set_no": 999,
        "meta_rev_at_epoch": 49853,
        "meta_bstar": 0.00098169301,
        "meta_mean_motion_dot": 0.00056749,
        "meta_mean_motion_ddot": 0,
        "tle_line1": "1 41885U 16078B   25337.67996246  .00056749  00000+0  98169-3 0  9993",
        "tle_line2": "2 41885  34.9344  81.3220 0008497 126.9892 233.1609 15.49780510498539"
      },
      "geometry": {
        "type": "Point",
        "coordinates": [
          -170.2473546942459,
          32.681851917642994
        ]
      }
    },
    {
      "type": "Feature",
      "properties": {
        "norad_id": 41886,
        "name": "CYGFM02",
        "group": "weather",
        "lat": 34.46182196164742,
        "lon": 154.3728410965654,
        "alt_km": 402.62454761854224,
        "timestamp": "2025-12-04T09:47:37.166063+00:00",
        "meta_object_name": "CYGFM02",
        "meta_object_id": "2016-078C",
        "meta_epoch": "2025-12-03T16:27:15.357888",
        "meta_mean_motion": 15.51117901,
        "meta_eccentricity": 0.00102215,
        "meta_inclination": 34.9434,
        "meta_ra_of_asc_node": 79.7274,
        "meta_arg_of_pericenter": 125.8816,
        "meta_mean_anomaly": 234.2856,
        "meta_ephemeris_type": 0,
        "meta_classification_type": "U",
        "meta_norad_cat_id": 41886,
        "meta_element_set_no": 999,
        "meta_rev_at_epoch": 49866,
        "meta_bstar": 0.00053654674,
        "meta_mean_motion_dot": 0.0003243,
        "meta_mean_motion_ddot": 0,
        "tle_line1": "1 41886U 16078C   25337.68559442  .00032430  00000+0  53655-3 0  9990",
        "tle_line2": "2 41886  34.9434  79.7274 0010221 125.8816 234.2856 15.51117901498663"
      },
      "geometry": {
        "type": "Point",
        "coordinates": [
          154.3728410965654,
          34.46182196164742
        ]
      }
    },
    {
      "type": "Feature",
      "properties": {
        "norad_id": 41887,
        "name": "CYGFM01",
        "group": "weather",
        "lat": -12.433230960847949,
        "lon": 85.53486678749306,
        "alt_km": 426.45856024149725,
        "timestamp": "2025-12-04T09:47:37.166074+00:00",
        "meta_object_name": "CYGFM01",
        "meta_object_id": "2016-078D",
        "meta_epoch": "2025-12-03T18:24:28.844928",
        "meta_mean_motion": 15.4768667,
        "meta_eccentricity": 0.00090329,
        "meta_inclination": 34.9412,
        "meta_ra_of_asc_node": 108.1317,
        "meta_arg_of_pericenter": 88.3823,
        "meta_mean_anomaly": 271.7933,
        "meta_ephemeris_type": 0,
        "meta_classification_type": "U",
        "meta_norad_cat_id": 41887,
        "meta_element_set_no": 999,
        "meta_rev_at_epoch": 49831,
        "meta_bstar": 0.00054644493,
        "meta_mean_motion_dot": 0.00029225,
        "meta_mean_motion_ddot": 0,
        "tle_line1": "1 41887U 16078D   25337.76700052  .00029225  00000+0  54644-3 0  9992",
        "tle_line2": "2 41887  34.9412 108.1317 0009032  88.3823 271.7933 15.47686670498317"
      },
      "geometry": {
        "type": "Point",
        "coordinates": [
          85.53486678749306,
          -12.433230960847949
        ]
      }
    },
    {
      "type": "Feature",
      "properties": {
        "norad_id": 41888,
        "name": "CYGFM08",
        "group": "weather",
        "lat": -5.485975905120446,
        "lon": 79.12504969143389,
        "alt_km": 424.2140048363335,
        "timestamp": "2025-12-04T09:47:37.166085+00:00",
        "meta_object_name": "CYGFM08",
        "meta_object_id": "2016-078E",
        "meta_epoch": "2025-12-03T16:49:09.162336",
        "meta_mean_motion": 15.48859684,
        "meta_eccentricity": 0.00107145,
        "meta_inclination": 34.9451,
        "meta_ra_of_asc_node": 91.66,
        "meta_arg_of_pericenter": 114.1528,
        "meta_mean_anomaly": 246.0315,
        "meta_ephemeris_type": 0,
        "meta_classification_type": "U",
        "meta_norad_cat_id": 41888,
        "meta_element_set_no": 999,
        "meta_rev_at_epoch": 49853,
        "meta_bstar": 0.00053575123,
        "meta_mean_motion_dot": 0.00029879,
        "meta_mean_motion_ddot": 0,
        "tle_line1": "1 41888U 16078E   25337.70080049  .00029879  00000+0  53575-3 0  9991",
        "tle_line2": "2 41888  34.9451  91.6600 0010714 114.1528 246.0315 15.48859684498532"
      },
      "geometry": {
        "type": "Point",
        "coordinates": [
          79.12504969143389,
          -5.485975905120446
        ]
      }
    }
  ]
}